{
    "links": {
        "self": "http://www.neowsapp.com/rest/v1/neo/3801998?api_key=iIulBulltgU6a56xZRHN4H3l9WmuAYTsLGpBGhQ2"
    },
    "id": "3801998",
    "neo_reference_id": "3801998",
    "name": "(2018 FT1)",
    "designation": "2018 FT1",
    "nasa_jpl_url": "http://ssd.jpl.nasa.gov/sbdb.cgi?sstr=3801998",
    "absolute_magnitude_h": 23.0,
    "estimated_diameter": {
        "kilometers": {
            "estimated_diameter_min": 0.0667659413,
            "estimated_diameter_max": 0.1492931834
        },
        "meters": {
            "estimated_diameter_min": 66.7659413495,
            "estimated_diameter_max": 149.2931834393
        },
        "miles": {
            "estimated_diameter_min": 0.0414864197,
            "estimated_diameter_max": 0.0927664547
        },
        "feet": {
            "estimated_diameter_min": 219.0483710172,
            "estimated_diameter_max": 489.807047955
        }
    },
    "is_potentially_hazardous_asteroid": false,
    "close_approach_data": [
        {
            "close_approach_date": "2016-11-02",
            "close_approach_date_full": "2016-Nov-02 12:55",
            "epoch_date_close_approach": 1478091300000,
            "relative_velocity": {
                "kilometers_per_second": "20.6085222254",
                "kilometers_per_hour": "74190.6800115131",
                "miles_per_hour": "46099.2033660427"
            },
            "miss_distance": {
                "astronomical": "0.4567348846",
                "lunar": "177.6698701094",
                "kilometers": "68326565.890855802",
                "miles": "42456159.3263099876"
            },
            "orbiting_body": "Earth"
        },
        {
            "close_approach_date": "2018-03-05",
            "close_approach_date_full": "2018-Mar-05 12:41",
            "epoch_date_close_approach": 1520253660000,
            "relative_velocity": {
                "kilometers_per_second": "13.4960695029",
                "kilometers_per_hour": "48585.8502102899",
                "miles_per_hour": "30189.3578709437"
            },
            "miss_distance": {
                "astronomical": "0.2629130554",
                "lunar": "102.2731785506",
                "kilometers": "39331233.083031998",
                "miles": "24439294.9726296524"
            },
            "orbiting_body": "Earth"
        },
        {
            "close_approach_date": "2019-03-05",
            "close_approach_date_full": "2019-Mar-05 15:43",
            "epoch_date_close_approach": 1551800580000,
            "relative_velocity": {
                "kilometers_per_second": "22.7386823654",
                "kilometers_per_hour": "81859.2565153039",
                "miles_per_hour": "50864.1585830787"
            },
            "miss_distance": {
                "astronomical": "0.2883387758",
                "lunar": "112.1637837862",
                "kilometers": "43134866.698087546",
                "miles": "26802763.3055422948"
            },
            "orbiting_body": "Earth"
        }
    ],
    "orbital_data": {
        "orbit_id": "2",
        "orbit_determination_date": "2018-03-26 06:21:03",
        "first_observation_date": "2018-03-18",
        "last_observation_date": "2018-03-26",
        "data_arc_in_days": 8,
        "observations_used": 20,
        "orbit_uncertainty": "9",
        "minimum_orbit_intersection": ".159092",
        "jupiter_tisserand_invariant": "5.689",
        "epoch_osculation": "2458196.5",
        "eccentricity": ".4544445394079633",
        "semi_major_axis": "1.052731441732898",
        "inclination": "21.36635609647696",
        "ascending_node_longitude": "359.1401495255273",
        "orbital_period": "394.5252630328148",
        "perihelion_distance": ".5743233865743099",
        "perihelion_argument": "39.62853120332254",
        "aphelion_distance": "1.531139496891486",
        "perihelion_time": "2458090.696106786186",
        "mean_anomaly": "96.54489870729759",
        "mean_motion": ".9124890944437616",
        "equinox": "J2000",
        "orbit_class": {
            "orbit_class_type": "APO",
            "orbit_class_description": "Near-Earth asteroid orbits which cross the Earth’s orbit similar to that of 1862 Apollo",
            "orbit_class_range": "a (semi-major axis) > 1.0 AU; q (perihelion) < 1.017 AU"
        }
    },
    "is_sentry_object": false
}